{
  "type": "FeatureCollection",
  "features": [
    {
      "type": "Feature",
      "properties": {
        "norad_id": 27954,
        "name": "GALAXY 13 (HORIZONS-1)",
        "group": "intelsat",
        "lat": -0.5872018609627522,
        "lon": 46.175641170586815,
        "alt_km": 35793.77175418191,
        "timestamp": "2025-12-13T07:35:41.207778+00:00",
        "meta_object_name": "GALAXY 13 (HORIZONS-1)",
        "meta_object_id": "2003-044A",
        "meta_epoch": "2025-12-12T23:02:24.591840",
        "meta_mean_motion": 1.00271639,
        "meta_eccentricity": 0.00020554,
        "meta_inclination": 0.9362,
        "meta_ra_of_asc_node": 86.4662,
        "meta_arg_of_pericenter": 168.6306,
        "meta_mean_anomaly": 22.3996,
        "meta_ephemeris_type": 0,
        "meta_classification_type": "U",
        "meta_norad_cat_id": 27954,
        "meta_element_set_no": 999,
        "meta_rev_at_epoch": 4470,
        "meta_bstar": 0,
        "meta_mean_motion_dot": 1.45e-06,
        "meta_mean_motion_ddot": 0,
        "tle_line1": "1 27954U 03044A   25346.96000685  .00000145  00000+0  00000+0 0  9990",
        "tle_line2": "2 27954   0.9362  86.4662 0002055 168.6306  22.3996  1.00271639 44708"
      },
      "geometry": {
        "type": "Point",
        "coordinates": [
          46.175641170586815,
          -0.5872018609627522
        ]
      }
    },
    {
      "type": "Feature",
      "properties": {
        "norad_id": 28358,
        "name": "INTELSAT 10-02",
        "group": "intelsat",
        "lat": 0.0033943239054261623,
        "lon": -164.81198518150978,
        "alt_km": 35786.84332541299,
        "timestamp": "2025-12-13T07:35:41.207789+00:00",
        "meta_object_name": "INTELSAT 10-02",
        "meta_object_id": "2004-022A",
        "meta_epoch": "2025-12-12T22:02:12.093792",
        "meta_mean_motion": 1.00271112,
        "meta_eccentricity": 0.0001067,
        "meta_inclination": 0.0226,
        "meta_ra_of_asc_node": 63.6504,
        "meta_arg_of_pericenter": 229.2505,
        "meta_mean_anomaly": 118.5436,
        "meta_ephemeris_type": 0,
        "meta_classification_type": "U",
        "meta_norad_cat_id": 28358,
        "meta_element_set_no": 999,
        "meta_rev_at_epoch": 7868,
        "meta_bstar": 0,
        "meta_mean_motion_dot": 2e-08,
        "meta_mean_motion_ddot": 0,
        "tle_line1": "1 28358U 04022A   25346.91819553  .00000002  00000+0  00000+0 0  9995",
        "tle_line2": "2 28358   0.0226  63.6504 0001067 229.2505 118.5436  1.00271112 78683"
      },
      "geometry": {
        "type": "Point",
        "coordinates": [
          -164.81198518150978,
          0.0033943239054261623
        ]
      }
    },
    {
      "type": "Feature",
      "properties": {
        "norad_id": 28626,
        "name": "XM-3 (RHYTHM)",
        "group": "intelsat",
        "lat": -0.1354232082678595,
        "lon": -52.26320375984156,
        "alt_km": 36155.47915130584,
        "timestamp": "2025-12-13T07:35:41.207800+00:00",
        "meta_object_name": "XM-3 (RHYTHM)",
        "meta_object_id": "2005-008A",
        "meta_epoch": "2025-12-12T20:52:06.198816",
        "meta_mean_motion": 0.98952395,
        "meta_eccentricity": 0.00015604,
        "meta_inclination": 0.1751,
        "meta_ra_of_asc_node": 81.5582,
        "meta_arg_of_pericenter": 271.1485,
        "meta_mean_anomaly": 155.8368,
        "meta_ephemeris_type": 0,
        "meta_classification_type": "U",
        "meta_norad_cat_id": 28626,
        "meta_element_set_no": 999,
        "meta_rev_at_epoch": 4075,
        "meta_bstar": 0,
        "meta_mean_motion_dot": -1.45e-06,
        "meta_mean_motion_ddot": 0,
        "tle_line1": "1 28626U 05008A   25346.86951619 -.00000145  00000+0  00000+0 0  9991",
        "tle_line2": "2 28626   0.1751  81.5582 0001560 271.1485 155.8368  0.98952395 40751"
      },
      "geometry": {
        "type": "Point",
        "coordinates": [
          -52.26320375984156,
          -0.1354232082678595
        ]
      }
    },
    {
      "type": "Feature",
      "properties": {
        "norad_id": 28659,
        "name": "DIRECTV 8",
        "group": "intelsat",
        "lat": 0.017855037463926512,
        "lon": 77.12750583308315,
        "alt_km": 35798.617203484624,
        "timestamp": "2025-12-13T07:35:41.207810+00:00",
        "meta_object_name": "DIRECTV 8",
        "meta_object_id": "2005-019A",
        "meta_epoch": "2025-12-12T23:11:16.243008",
        "meta_mean_motion": 1.00271883,
        "meta_eccentricity": 0.00030146,
        "meta_inclination": 0.0214,
        "meta_ra_of_asc_node": 64.568,
        "meta_arg_of_pericenter": 202.2078,
        "meta_mean_anomaly": 43.9038,
        "meta_ephemeris_type": 0,
        "meta_classification_type": "U",
        "meta_norad_cat_id": 28659,
        "meta_element_set_no": 999,
        "meta_rev_at_epoch": 7520,
        "meta_bstar": 0,
        "meta_mean_motion_dot": 1.4e-07,
        "meta_mean_motion_ddot": 0,
        "tle_line1": "1 28659U 05019A   25346.96616022  .00000014  00000+0  00000+0 0  9990",
        "tle_line2": "2 28659   0.0214  64.5680 0003014 202.2078  43.9038  1.00271883 75208"
      },
      "geometry": {
        "type": "Point",
        "coordinates": [
          77.12750583308315,
          0.017855037463926512
        ]
      }
    },
    {
      "type": "Feature",
      "properties": {
        "norad_id": 28702,
        "name": "GALAXY 28 (G-28)",
        "group": "intelsat",
        "lat": 1.2600013967735413,
        "lon": 107.44026988054539,
        "alt_km": 35796.9655943938,
        "timestamp": "2025-12-13T07:35:41.207821+00:00",
        "meta_object_name": "GALAXY 28 (G-28)",
        "meta_object_id": "2005-022A",
        "meta_epoch": "2025-12-12T23:19:52.917600",
        "meta_mean_motion": 1.0027179,
        "meta_eccentricity": 0.00028132,
        "meta_inclination": 2.8194,
        "meta_ra_of_asc_node": 81.2795,
        "meta_arg_of_pericenter": 184.0549,
        "meta_mean_anomaly": 77.86,
        "meta_ephemeris_type": 0,
        "meta_classification_type": "U",
        "meta_norad_cat_id": 28702,
        "meta_element_set_no": 999,
        "meta_rev_at_epoch": 5010,
        "meta_bstar": 0,
        "meta_mean_motion_dot": -1.75e-06,
        "meta_mean_motion_ddot": 0,
        "tle_line1": "1 28702U 05022A   25346.97214025 -.00000175  00000+0  00000+0 0  9990",
        "tle_line2": "2 28702   2.8194  81.2795 0002813 184.0549  77.8600  1.00271790 50103"
      },
      "geometry": {
        "type": "Point",
        "coordinates": [
          107.44026988054539,
          1.2600013967735413
        ]
      }
    },
    {
      "type": "Feature",
      "properties": {
        "norad_id": 29236,
        "name": "GALAXY 16 (G-16)",
        "group": "intelsat",
        "lat": -0.006381016568109884,
        "lon": 97.15247480839884,
        "alt_km": 35796.49098728165,
        "timestamp": "2025-12-13T07:35:41.207846+00:00",
        "meta_object_name": "GALAXY 16 (G-16)",
        "meta_object_id": "2006-023A",
        "meta_epoch": "2025-12-12T23:16:53.204736",
        "meta_mean_motion": 1.00272326,
        "meta_eccentricity": 0.0002607,
        "meta_inclination": 0.0499,
        "meta_ra_of_asc_node": 134.1983,
        "meta_arg_of_pericenter": 125.8762,
        "meta_mean_anomaly": 72.052,
        "meta_ephemeris_type": 0,
        "meta_classification_type": "U",
        "meta_norad_cat_id": 29236,
        "meta_element_set_no": 999,
        "meta_rev_at_epoch": 7110,
        "meta_bstar": 0,
        "meta_mean_motion_dot": -1.14e-06,
        "meta_mean_motion_ddot": 0,
        "tle_line1": "1 29236U 06023A   25346.97006024 -.00000114  00000+0  00000+0 0  9996",
        "tle_line2": "2 29236   0.0499 134.1983 0002607 125.8762  72.0520  1.00272326 71109"
      },
      "geometry": {
        "type": "Point",
        "coordinates": [
          97.15247480839884,
          -0.006381016568109884
        ]
      }
    },
    {
      "type": "Feature",
      "properties": {
        "norad_id": 29494,
        "name": "DIRECTV 9S",
        "group": "intelsat",
        "lat": 0.41270474553202025,
        "lon": 94.94182080911685,
        "alt_km": 35798.49950934588,
        "timestamp": "2025-12-13T07:35:41.207857+00:00",
        "meta_object_name": "DIRECTV 9S",
        "meta_object_id": "2006-043A",
        "meta_epoch": "2025-12-12T23:16:15.765024",
        "meta_mean_motion": 1.00271878,
        "meta_eccentricity": 0.0002994,
        "meta_inclination": 1.941,
        "meta_ra_of_asc_node": 83.2089,
        "meta_arg_of_pericenter": 181.9864,
        "meta_mean_anomaly": 64.5668,
        "meta_ephemeris_type": 0,
        "meta_classification_type": "U",
        "meta_norad_cat_id": 29494,
        "meta_element_set_no": 999,
        "meta_rev_at_epoch": 4951,
        "meta_bstar": 0,
        "meta_mean_motion_dot": -1.01e-06,
        "meta_mean_motion_ddot": 0,
        "tle_line1": "1 29494U 06043A   25346.96962691 -.00000101  00000+0  00000+0 0  9990",
        "tle_line2": "2 29494   1.9410  83.2089 0002994 181.9864  64.5668  1.00271878 49514"
      },
      "geometry": {
        "type": "Point",
        "coordinates": [
          94.94182080911685,
          0.41270474553202025
        ]
      }
    }
  ]
}